SCD 1                   
1 22490U 93009B   26162.65764919 -.00000233  00000+0 -11399-3 0  9997
2 22490  24.9686 241.7201 0042167  79.5043  53.5703 14.46116450760311
TECHSAT 1B (GO-32)      
1 25397U 98043D   26163.21762168  .00000055  00000+0  43827-4 0  9998
2 25397  99.0066 155.8509 0000772 174.7863 185.3323 14.24427513450628
SCD 2                   
1 25504U 98060A   26163.11846582  .00000357  00000+0  49009-4 0  9992
2 25504  24.9946 103.4159 0016952  70.0852 312.8198 14.45523836459595
DLR-TUBSAT              
1 25757U 99029B   26163.26444349  .00000088  00000+0  33473-4 0  9998
2 25757  98.6695 158.6066 0014367  10.1235 350.0246 14.52425716432530
TERRA                   
1 25994U 99068A   26163.22013975  .00000374  00000+0  85020-4 0  9990
2 25994  97.9458 212.9632 0001200 209.6098 192.5381 14.61099431408880
MAROC-TUBSAT            
1 27004U 01056D   26163.27985347 -.00000012  00000+0  38825-4 0  9991
2 27004  99.8079 340.0470 0020180 153.5711  25.4240 13.70262285225517
AQUA                    
1 27424U 02022A   26163.27262361  .00000749  00000+0  15871-3 0  9996
2 27424  98.4275 132.4573 0001301  53.1896  53.9572 14.62151241282558
SHIYAN-1 (SY-1)         
1 28220U 04012A   26163.15987391  .00014370  00000+0  44398-3 0  9997
2 28220  97.8696 240.9018 0006017  49.2235 310.9528 15.33635565210322
AURA                    
1 28376U 04026A   26163.26156737  .00000750  00000+0  16171-3 0  9993
2 28376  98.3416 119.6742 0001273  72.8246 287.3094 14.61322266165492
IRS-P5 (CARTOSAT-1)     
1 28649U 05017A   26163.04513746  .00001007  00000+0  10708-3 0  9996
2 28649  97.5308 186.3428 0002674  87.0298 273.1227 14.91035485143055
SINAH 1                 
1 28893U 05043D   26163.27040842  .00000287  00000+0  64002-4 0  9999
2 28893  98.2853 297.5636 0013201 293.7272  66.2545 14.64154588 99804
RESURS-DK 1             
1 29228U 06021A   26162.94537913  .00002187  00000+0  12897-3 0  9997
2 29228  69.9338 353.1217 0006700 295.8467  64.2008 15.13194127101780
ARIRANG-2 (KOMPSAT-2)   
1 29268U 06031A   26163.31786201  .00000247  00000+0  54779-4 0  9991
2 29268  97.8310 348.0006 0015937  88.5684  36.3506 14.64656851 60760
LAPAN-TUBSAT            
1 29709U 07001A   26163.27132755  .00000118  00000+0  20174-4 0  9992
2 29709  98.1341 162.3843 0011519 195.9524 164.1330 14.85943534 50429
HAIYANG-1B              
1 31113U 07010A   26163.18047063  .00000083  00000+0  47477-4 0  9997
2 31113  98.3492 145.2198 0012711 211.8580 148.1836 14.31025719999914
COSMO-SKYMED 1          
1 31598U 07023A   26163.32269661  .00002431  00000+0  21605-3 0  9997
2 31598  97.8846 355.1384 0001002  91.0792 269.0544 14.97077304 29069
TERRASAR-X              
1 31698U 07026A   26160.28753291  .00000433  00000+0  23833-4 0  9996
2 31698  97.4448 168.1064 0001684  80.8129 279.3296 15.19149435 52027
WORLDVIEW-1 (WV-1)      
1 32060U 07041A   26163.30278733  .00006057  00000+0  25135-3 0  9990
2 32060  97.3867 283.1170 0002717  35.1625 324.9792 15.24214562 42132
YAOGAN-3                
1 32289U 07055A   26163.29466852  .00002063  00000+0  21557-3 0  9994
2 32289  97.8158 193.2205 0001858  86.4427 273.7003 14.90761513  5148
COSMO-SKYMED 2          
1 32376U 07059A   26163.30028280  .00000407  00000+0  57695-4 0  9999
2 32376  97.8885 346.9692 0001377  86.1236 274.0134 14.82151208  1285
RADARSAT-2              
1 32382U 07061A   26163.27979116  .00000341  00000+0  14897-3 0  9991
2 32382  98.5780 170.2823 0001325  82.4968 277.6365 14.29984777965259
CARTOSAT-2A             
1 32783U 08021A   26163.24381126  .00000921  00000+0  13061-3 0  9994
2 32783  97.7641 212.1211 0012974 123.3149 236.9307 14.79232592978070
HUANJING 1A (HJ-1A)     
1 33320U 08041A   26163.24409049  .00001323  00000+0  16471-3 0  9994
2 33320  97.6677 149.2734 0019542 150.3141 209.9188 14.83975236957670
HUANJING 1B (HJ-1B)     
1 33321U 08041B   26163.27838081  .00001467  00000+0  18360-3 0  9998
2 33321  97.6516 152.4933 0035584 197.1676 162.8337 14.83311595957682
GEOEYE 1                
1 33331U 08042A   26163.23337060  .00000412  00000+0  86236-4 0  9994
2 33331  98.1235 237.2273 0005530  81.4391 278.7439 14.64721422949429
THEOS                   
1 33396U 08049A   26163.31877690 -.00000325  00000+0 -13247-3 0  9995
2 33396  98.5577 220.7603 0001268  79.8407 280.2913 14.20131412917279
COSMO-SKYMED 3          
1 33412U 08054A   26163.29587120  .00001817  00000+0  12581-3 0  9998
2 33412  97.8285  21.7860 0014418 285.2880  74.6752 15.06914511956205
YAOGAN-4                
1 33446U 08061A   26163.24229023  .00000925  00000+0  11963-3 0  9995
2 33446  97.9309  96.7892 0015784  87.0521 273.2499 14.83191269944937
GOSAT (IBUKI)           
1 33492U 09002A   26163.29742507  .00001067  00000+0  19655-3 0  9998
2 33492  98.0883 274.4398 0001613  88.7114 271.4276 14.67541759930747
DEIMOS-1                
1 35681U 09041A   26163.30282056  .00000390  00000+0  64652-4 0  9999
2 35681  97.7396 320.7427 0001351 136.9440 223.1876 14.75232288906161
